SAUDISAT 4              
1 40016U 14033G   17345.68921120  .00000053  00000-0  15166-4 0  9992
2 40016  97.8384 227.8730 0049801  75.6232 285.0498 14.75157085187306
